IRIDIUM 7               
1 24793U 97020B   24282.51264186  .00002918  00000+0  10087-2 0  9991
2 24793  86.3901 282.3487 0002133  96.3168 263.8271 14.35482528435788
IRIDIUM 5               
1 24795U 97020D   24282.47686376  .00037176  00000+0  33758-2 0  9991
2 24795  86.3970 199.3408 0115419 320.6766  38.6119 14.90095448447925
IRIDIUM 4               
1 24796U 97020E   24282.51608566  .00002588  00000+0  87760-3 0  9994
2 24796  86.3895 279.3862 0002207  90.0880 270.0570 14.36405671436339
IRIDIUM 914             
1 24836U 97030A   24282.51954715  .00003343  00000+0  10493-2 0  9998
2 24836  86.3880 288.7491 0002088  45.3703 314.7666 14.40313408570897
IRIDIUM 16              
1 24841U 97030F   24282.59184713  .00002777  00000+0  90852-3 0  9993
2 24841  86.4005 311.0093 0003433 131.6761 228.4731 14.38204917430833
IRIDIUM 911             
1 24842U 97030G   24282.53026855  .00004261  00000+0  11669-2 0  9998
2 24842  86.4428 310.0583 0013105 208.4614 151.5875 14.46940664438684
IRIDIUM 17              
1 24870U 97034B   24282.56264008  .00003141  00000+0  10470-2 0  9995
2 24870  86.3990 340.5912 0003741 104.6748 255.4864 14.37318619427434
IRIDIUM 920             
1 24871U 97034C   24282.55725150  .00002821  00000+0  87143-3 0  9991
2 24871  86.3967 320.4069 0011434 181.0825 179.0352 14.41011951430590
